NORAD_CAT_ID,OBJECT_NAME,OBJECT_TYPE,EPOCH,MEAN_MOTION,ECCENTRICITY,INCLINATION,RA_OF_ASC_NODE,ARG_OF_PERICENTER,MEAN_ANOMALY,BSTAR,MEAN_MOTION_DOT,MEAN_MOTION_DDOT,TLE_LINE0,TLE_LINE1,TLE_LINE2,SEMIMAJOR_AXIS,PERIOD,APOGEE,PERIGEE,DECAYED
52113.0,STARLINK-3736,PAYLOAD,2023-11-25 01:20:13,15.08845571,0.0001629,53.2165,230.4282,92.0376,268.0802,0.00064381,9.975e-05,0.0,0 STARLINK-3736,1 52113U 22029AB  23329.05570841  .00009975  00000-0  64381-3 0  9991,2 52113  53.2165 230.4282 0001629  92.0376 268.0802 15.08845571 94634,6917.863,95.437,540.855,538.601,0.0
52113.0,STARLINK-3736,PAYLOAD,2023-11-25 22:00:13,15.08864235,0.0001604,53.216,226.5614,135.0574,225.0548,0.00071373,0.00011097,0.0,0 STARLINK-3736,1 52113U 22029AB  23329.91681897  .00011097  00000-0  71373-3 0  9997,2 52113  53.2160 226.5614 0001604 135.0574 225.0548 15.08864235 94767,6917.806,95.436,540.781,538.562,0.0
52113.0,STARLINK-3736,PAYLOAD,2023-11-25 23:35:36,15.08876454,0.0001515,53.2155,226.267,83.3003,276.8161,0.0012207,0.00019212,0.0,0 STARLINK-3736,1 52113U 22029AB  23329.98305998  .00019212  00000-0  12207-2 0  9996,2 52113  53.2155 226.2670 0001515  83.3003 276.8161 15.08876454 94775,6917.769,95.435,540.682,538.586,0.0
52113.0,STARLINK-3736,PAYLOAD,2023-11-26 20:15:36,15.08853946,0.0001481,53.2167,222.4006,109.9333,250.1819,0.00053672,8.267e-05,0.0,0 STARLINK-3736,1 52113U 22029AB  23330.84417529  .00008267  00000-0  53672-3 0  9997,2 52113  53.2167 222.4006 0001481 109.9333 250.1819 15.08853946 94903,6917.838,95.437,540.727,538.678,0.0
52113.0,STARLINK-3736,PAYLOAD,2023-11-26 21:50:59,15.08805632,0.0001423,53.2174,222.102,69.2951,290.8194,-0.0017288,-0.00027671,0.0,0 STARLINK-3736,1 52113U 22029AB  23330.91041621 -.00027671  00000-0 -17288-2 0  9995,2 52113  53.2174 222.1020 0001423  69.2951 290.8194 15.08805632 94911,6917.985,95.44,540.835,538.866,0.0
52113.0,STARLINK-3736,PAYLOAD,2023-11-27 02:37:09,15.08807948,0.0001258,53.216,221.211,102.1168,257.9965,-0.00081872,-0.00013283,0.0,0 STARLINK-3736,1 52113U 22029AB  23331.10914286 -.00013283  00000-0 -81872-3 0  9998,2 52113  53.2160 221.2110 0001258 102.1168 257.9965 15.08807948 94944,6917.978,95.44,540.714,538.973,0.0
52113.0,STARLINK-3736,PAYLOAD,2023-11-27 20:06:25,15.08823977,0.0001704,53.2158,217.946,54.1044,306.0106,-0.00012365,-2.255e-05,0.0,0 STARLINK-3736,1 52113U 22029AB  23331.83779472 -.00002255  00000-0 -12365-3 0  9992,2 52113  53.2158 217.9460 0001704  54.1044 306.0106 15.08823977 95052,6917.929,95.439,540.973,538.616,0.0
52113.0,STARLINK-3736,PAYLOAD,2023-11-27 21:41:48,15.08827478,0.0002203,53.2162,217.6483,47.2838,312.8339,-6.041e-05,-1.249e-05,0.0,0 STARLINK-3736,1 52113U 22029AB  23331.90403674 -.00001249  00000-0 -60410-4 0  9995,2 52113  53.2162 217.6483 0002203  47.2838 312.8339 15.08827478 95062,6917.919,95.438,541.308,538.26,0.0
52113.0,STARLINK-3736,PAYLOAD,2023-11-28 02:27:58,15.08828322,0.0001826,53.2177,216.7462,90.4345,269.6856,0.00057547,8.88e-05,0.0,0 STARLINK-3736,1 52113U 22029AB  23332.10275736  .00008880  00000-0  57547-3 0  9996,2 52113  53.2177 216.7462 0001826  90.4345 269.6856 15.08828322 95093,6917.916,95.438,541.044,538.518,0.0
52113.0,STARLINK-3736,PAYLOAD,2023-11-28 19:57:12,15.08873981,0.0001375,53.2151,213.4814,82.9324,277.1824,0.0013967,0.00022031,0.0,0 STARLINK-3736,1 52113U 22029AB  23332.83139018  .00022031  00000-0  13967-2 0  9999,2 52113  53.2151 213.4814 0001375  82.9324 277.1824 15.08873981 95205,6917.777,95.435,540.593,538.69,0.0
52113.0,STARLINK-3736,PAYLOAD,2023-11-28 21:32:34,15.08879205,0.0001783,53.216,213.1803,101.2132,258.906,0.0013544,0.00021356,0.0,0 STARLINK-3736,1 52113U 22029AB  23332.89762650  .00021356  00000-0  13544-2 0  9999,2 52113  53.2160 213.1803 0001783 101.2132 258.9060 15.08879205 95210,6917.761,95.435,540.859,538.392,0.0
52113.0,STARLINK-3736,PAYLOAD,2023-11-29 02:18:43,15.08910667,0.0001775,53.2157,212.289,106.6324,253.4863,0.0024884,0.00039615,0.0,0 STARLINK-3736,1 52113U 22029AB  23333.09633713  .00039615  00000-0  24884-2 0  9995,2 52113  53.2157 212.2890 0001775 106.6324 253.4863 15.08910667 95247,6917.664,95.433,540.757,538.302,0.0
52113.0,STARLINK-3736,PAYLOAD,2023-11-29 19:47:58,15.08845207,0.0002084,53.2155,209.0168,125.5057,234.613,0.0010209,0.00015999,0.0,0 STARLINK-3736,1 52113U 22029AB  23333.82498088  .00015999  00000-0  10209-2 0  9995,2 52113  53.2155 209.0168 0002084 125.5057 234.6130 15.08845207 95351,6917.864,95.437,541.171,538.288,0.0
52113.0,STARLINK-3736,PAYLOAD,2023-11-30 00:34:08,15.08832333,0.0001291,53.2149,208.1252,73.1316,286.9818,-0.00026103,-4.439e-05,0.0,0 STARLINK-3736,1 52113U 22029AB  23334.02370539 -.00004439  00000-0 -26103-3 0  9998,2 52113  53.2149 208.1252 0001291  73.1316 286.9818 15.08832333 95385,6917.904,95.438,540.662,538.876,0.0
52113.0,STARLINK-3736,PAYLOAD,2023-11-30 19:38:48,15.08786378,0.0001727,53.2149,204.5525,86.8438,273.2752,-0.00020901,-3.608e-05,0.0,0 STARLINK-3736,1 52113U 22029AB  23334.81861786 -.00003608  00000-0 -20901-3 0  9991,2 52113  53.2149 204.5525 0001727  86.8438 273.2752 15.08786378 95505,6918.044,95.441,541.104,538.715,0.0
52113.0,STARLINK-3736,PAYLOAD,2023-12-01 00:24:58,15.08825407,0.0001497,53.2152,203.6617,91.6212,268.4952,0.0013421,0.00021128,0.0,0 STARLINK-3736,1 52113U 22029AB  23335.01733962  .00021128  00000-0  13421-2 0  9991,2 52113  53.2152 203.6617 0001497  91.6212 268.4952 15.08825407 95537,6917.925,95.438,540.826,538.754,0.0
52113.0,STARLINK-3736,PAYLOAD,2023-12-01 19:29:34,15.08871495,0.0001455,53.2149,200.0979,117.9607,242.1533,0.001511,0.00023862,0.0,0 STARLINK-3736,1 52113U 22029AB  23335.81219973  .00023862  00000-0  15110-2 0  9994,2 52113  53.2149 200.0979 0001455 117.9607 242.1533 15.08871495 95654,6917.784,95.436,540.656,538.643,0.0
52113.0,STARLINK-3736,PAYLOAD,2023-12-01 22:40:19,15.0888207,0.0001616,53.2146,199.5036,72.042,288.0748,0.0016596,0.00026254,0.0,0 STARLINK-3736,1 52113U 22029AB  23335.94467572  .00026254  00000-0  16596-2 0  9995,2 52113  53.2146 199.5036 0001616  72.0420 288.0748 15.08882070 95670,6917.752,95.435,540.735,538.499,0.0
52113.0,STARLINK-3736,PAYLOAD,2023-12-02 00:15:42,15.08885226,0.0001491,53.2148,199.2068,85.2541,274.8621,0.0016147,0.00025535,0.0,0 STARLINK-3736,1 52113U 22029AB  23336.01091341  .00025535  00000-0  16147-2 0  9994,2 52113  53.2148 199.2068 0001491  85.2541 274.8621 15.08885226 95685,6917.742,95.435,540.639,538.576,0.0
52113.0,STARLINK-3736,PAYLOAD,2023-12-02 19:20:20,15.08854629,0.0001613,53.2144,195.6375,76.4393,283.6778,-0.00020672,-3.578e-05,0.0,0 STARLINK-3736,1 52113U 22029AB  23336.80579033 -.00003578  00000-0 -20672-3 0  9994,2 52113  53.2144 195.6375 0001613  76.4393 283.6778 15.08854629 95803,6917.836,95.437,540.817,538.585,0.0
52113.0,STARLINK-3736,PAYLOAD,2023-12-02 20:55:43,15.0885351,0.0001511,53.2153,195.3377,87.5674,272.5491,-0.0004173,-6.926e-05,0.0,0 STARLINK-3736,1 52113U 22029AB  23336.87202847 -.00006926  00000-0 -41730-3 0  9995,2 52113  53.2153 195.3377 0001511  87.5674 272.5491 15.08853510 95812,6917.839,95.437,540.749,538.659,0.0
52113.0,STARLINK-3736,PAYLOAD,2023-12-03 14:24:58,15.08821783,0.0001502,53.215,192.0685,109.9449,250.1705,0.00013124,1.8e-05,0.0,0 STARLINK-3736,1 52113U 22029AB  23337.60068058  .00001800  00000-0  13124-3 0  9991,2 52113  53.2150 192.0685 0001502 109.9449 250.1705 15.08821783 95923,6917.936,95.439,540.84,538.762,0.0
52113.0,STARLINK-3736,PAYLOAD,2023-12-03 19:11:08,15.08821405,0.000158,53.2153,191.1746,112.404,247.712,0.00021922,3.201e-05,0.0,0 STARLINK-3736,1 52113U 22029AB  23337.79940408  .00003201  00000-0  21922-3 0  9991,2 52113  53.2153 191.1746 0001580 112.4040 247.7120 15.08821405 95953,6917.937,95.439,540.895,538.709,0.0
52113.0,STARLINK-3736,PAYLOAD,2023-12-04 14:15:47,15.08826,0.0001391,53.2148,187.6103,79.9295,280.1854,0.00037337,5.657e-05,0.0,0 STARLINK-3736,1 52113U 22029AB  23338.59429515  .00005657  00000-0  37337-3 0  9995,2 52113  53.2148 187.6103 0001391  79.9295 280.1854 15.08826000 96078,6917.923,95.438,540.75,538.826,0.0
52113.0,STARLINK-3736,PAYLOAD,2023-12-04 23:48:05,15.08834051,0.0001368,53.2151,185.825,86.1518,273.963,0.00043424,6.629e-05,0.0,0 STARLINK-3736,1 52113U 22029AB  23338.99173611  .00006629  00000-0  43424-3 0  9996,2 52113  53.2151 185.8250 0001368  86.1518 273.9630 15.08834051 96131,6917.899,95.438,540.71,538.817,0.0
52113.0,STARLINK-3736,PAYLOAD,2023-12-05 17:17:20,15.08848454,0.0001305,53.2145,182.5543,85.8296,274.2845,0.00053909,8.304e-05,0.0,0 STARLINK-3736,1 52113U 22029AB  23339.72037429  .00008304  00000-0  53909-3 0  9995,2 52113  53.2145 182.5543 0001305  85.8296 274.2845 15.08848454 96249,6917.855,95.437,540.622,538.817,0.0
52113.0,STARLINK-3736,PAYLOAD,2023-12-07 13:48:06,15.08858779,0.0001133,53.2143,174.2281,94.7395,265.3726,0.00031685,4.761e-05,0.0,0 STARLINK-3736,1 52113U 22029AB  23341.57507899  .00004761  00000-0  31685-3 0  9994,2 52113  53.2143 174.2281 0001133  94.7395 265.3726 15.08858779 96523,6917.823,95.436,540.472,538.904,0.0
52113.0,STARLINK-3736,PAYLOAD,2023-12-08 15:14:16,15.08842909,0.0001138,53.2146,169.4695,88.3162,271.7961,1.6494e-05,-2.5e-07,0.0,0 STARLINK-3736,1 52113U 22029AB  23342.63491733 -.00000025  00000-0  16494-4 0  9993,2 52113  53.2146 169.4695 0001138  88.3162 271.7961 15.08842909 96684,6917.871,95.437,540.524,538.949,0.0
52113.0,STARLINK-3736,PAYLOAD,2023-12-08 21:35:49,15.08843784,0.0001155,53.2146,168.28,87.1334,272.979,7.8782e-06,-1.62e-06,0.0,0 STARLINK-3736,1 52113U 22029AB  23342.89987733 -.00000162  00000-0  78782-5 0  9992,2 52113  53.2146 168.2800 0001155  87.1334 272.9790 15.08843784 96726,6917.869,95.437,540.533,538.935,0.0
52113.0,STARLINK-3736,PAYLOAD,2023-12-09 11:54:17,15.08839961,0.0001076,53.2145,165.6039,87.5123,272.5992,-3.3216e-06,-3.41e-06,0.0,0 STARLINK-3736,1 52113U 22029AB  23343.49603824 -.00000341  00000-0 -33216-5 0  9998,2 52113  53.2145 165.6039 0001076  87.5123 272.5992 15.08839961 96814,6917.881,95.438,540.49,539.001,0.0
